NORAD_CAT_ID,OBJECT_NAME,OBJECT_TYPE,EPOCH,MEAN_MOTION,ECCENTRICITY,INCLINATION,RA_OF_ASC_NODE,ARG_OF_PERICENTER,MEAN_ANOMALY,BSTAR,MEAN_MOTION_DOT,MEAN_MOTION_DDOT,TLE_LINE0,TLE_LINE1,TLE_LINE2,SEMIMAJOR_AXIS,PERIOD,APOGEE,PERIGEE,DECAYED
56815.0,STARLINK-6057,PAYLOAD,2023-11-23 08:12:56,14.98318942,0.0002595,70.0003,295.8083,267.9029,92.1833,0.00014091,1.588e-05,0.0,0 STARLINK-6057,1 56815U 23078BA  23327.34232248  .00001588  00000-0  14091-3 0  9990,2 56815  70.0003 295.8083 0002595 267.9029  92.1833 14.98318942 27259,6950.227,96.108,573.896,570.289,0.0
56815.0,STARLINK-6057,PAYLOAD,2023-11-23 22:38:09,14.98325124,0.0002317,70.0003,294.2924,252.6353,107.4553,-2.7239e-06,-1.25e-06,0.0,0 STARLINK-6057,1 56815U 23078BA  23327.94316235 -.00000125  00000-0 -27239-5 0  9993,2 56815  70.0003 294.2924 0002317 252.6353 107.4553 14.98325124 27348,6950.208,96.107,573.683,570.463,0.0
56815.0,STARLINK-6057,PAYLOAD,2023-11-24 03:26:33,14.98324162,0.0002648,69.9998,293.7873,264.9597,95.126,-2.4324e-05,-3.83e-06,0.0,0 STARLINK-6057,1 56815U 23078BA  23328.14344413 -.00000383  00000-0 -24324-4 0  9992,2 56815  69.9998 293.7873 0002648 264.9597  95.1260 14.98324162 27639,6950.211,96.107,573.916,570.236,0.0
56815.0,STARLINK-6057,PAYLOAD,2023-11-24 08:14:57,14.98321431,0.000238,70.0007,293.2826,257.7861,102.3031,9.1578e-05,1e-05,0.0,0 STARLINK-6057,1 56815U 23078BA  23328.34372332  .00001000  00000-0  91578-4 0  9995,2 56815  70.0007 293.2826 0002380 257.7861 102.3031 14.98321431 27401,6950.219,96.108,573.739,570.43,0.0
56815.0,STARLINK-6057,PAYLOAD,2023-11-24 22:40:10,14.98327227,0.0002588,70.0003,291.7692,258.0042,102.0827,4.7771e-05,4.77e-06,0.0,0 STARLINK-6057,1 56815U 23078BA  23328.94456071  .00000477  00000-0  47771-4 0  9997,2 56815  70.0003 291.7692 0002588 258.0042 102.0827 14.98327227 27494,6950.201,96.107,573.865,570.268,0.0
56815.0,STARLINK-6057,PAYLOAD,2023-11-25 03:28:34,14.98329431,0.0002558,70.0007,291.2651,250.1582,109.9302,6.5267e-05,6.86e-06,0.0,0 STARLINK-6057,1 56815U 23078BA  23329.14483886  .00000686  00000-0  65267-4 0  9996,2 56815  70.0007 291.2651 0002558 250.1582 109.9302 14.98329431 27782,6950.195,96.107,573.838,570.282,0.0
56815.0,STARLINK-6057,PAYLOAD,2023-11-25 08:16:57,14.98333204,0.0002447,70.0009,290.7583,254.5595,105.5294,0.00013571,1.527e-05,0.0,0 STARLINK-6057,1 56815U 23078BA  23329.34511491  .00001527  00000-0  13571-3 0  9997,2 56815  70.0009 290.7583 0002447 254.5595 105.5294 14.98333204 27551,6950.183,96.107,573.749,570.347,0.0
56815.0,STARLINK-6057,PAYLOAD,2023-11-25 22:42:10,14.98335919,0.000273,70.0043,289.2487,264.3769,95.7079,-7.2459e-05,-9.57e-06,0.0,0 STARLINK-6057,1 56815U 23078BA  23329.94595785 -.00000957  00000-0 -72459-4 0  9990,2 56815  70.0043 289.2487 0002730 264.3769  95.7079 14.98335919 27648,6950.175,96.107,573.937,570.142,0.0
56815.0,STARLINK-6057,PAYLOAD,2023-11-26 03:30:34,14.98339514,0.0002445,70.0019,288.7406,253.1192,106.9699,5.0999e-05,5.16e-06,0.0,0 STARLINK-6057,1 56815U 23078BA  23330.14623067  .00000516  00000-0  50999-4 0  9993,2 56815  70.0019 288.7406 0002445 253.1192 106.9699 14.98339514 27935,6950.163,96.106,573.728,570.329,0.0
56815.0,STARLINK-6057,PAYLOAD,2023-11-26 06:42:49,14.9834587,0.0002558,70.0018,288.4052,251.9319,108.1562,5.9683e-05,6.2e-06,0.0,0 STARLINK-6057,1 56815U 23078BA  23330.27974530  .00000620  00000-0  59683-4 0  9996,2 56815  70.0018 288.4052 0002558 251.9319 108.1562 14.98345870 27698,6950.144,96.106,573.787,570.231,0.0
56815.0,STARLINK-6057,PAYLOAD,2023-11-26 22:44:12,14.98318985,0.0002743,70.0013,286.7211,241.4798,118.6085,-0.00015156,-1.9e-05,0.0,0 STARLINK-6057,1 56815U 23078BA  23330.94736910 -.00001900  00000-0 -15156-3 0  9998,2 56815  70.0013 286.7211 0002743 241.4798 118.6085 14.98318985 27796,6950.227,96.108,573.998,570.186,0.0
56815.0,STARLINK-6057,PAYLOAD,2023-11-27 03:32:37,14.98307926,0.0002628,70.0016,286.2168,235.6133,124.4778,-0.00026701,-3.275e-05,0.0,0 STARLINK-6057,1 56815U 23078BA  23331.14766046 -.00003275  00000-0 -26701-3 0  9999,2 56815  70.0016 286.2168 0002628 235.6133 124.4778 14.98307926 28085,6950.261,96.108,573.953,570.3,0.0
56815.0,STARLINK-6057,PAYLOAD,2023-11-27 06:44:53,14.98312469,0.0002343,70.001,285.8784,278.2966,81.7927,-0.00019868,-2.461e-05,0.0,0 STARLINK-6057,1 56815U 23078BA  23331.28118012 -.00002461  00000-0 -19868-3 0  9990,2 56815  70.0010 285.8784 0002343 278.2966  81.7927 14.98312469 27841,6950.247,96.108,573.741,570.484,0.0
56815.0,STARLINK-6057,PAYLOAD,2023-11-27 22:46:13,14.98326418,0.0002617,70.0026,284.1963,260.9263,99.16,-6.9673e-05,-9.24e-06,0.0,0 STARLINK-6057,1 56815U 23078BA  23331.94876873 -.00000924  00000-0 -69673-4 0  9991,2 56815  70.0026 284.1963 0002617 260.9263  99.1600 14.98326418 27942,6950.204,96.107,573.888,570.25,0.0
56815.0,STARLINK-6057,PAYLOAD,2023-11-28 01:58:29,14.98334514,0.000248,70.0014,283.859,249.5288,110.5605,-3.2981e-06,-1.32e-06,0.0,0 STARLINK-6057,1 56815U 23078BA  23332.08228136 -.00000132  00000-0 -32981-5 0  9994,2 56815  70.0014 283.8590 0002480 249.5288 110.5605 14.98334514 28220,6950.179,96.107,573.768,570.32,0.0
56815.0,STARLINK-6057,PAYLOAD,2023-11-28 06:46:52,14.98342493,0.0002127,70.0018,283.3533,268.0023,92.0892,8.0492e-05,8.68e-06,0.0,0 STARLINK-6057,1 56815U 23078BA  23332.28255421  .00000868  00000-0  80492-4 0  9996,2 56815  70.0018 283.3533 0002127 268.0023  92.0892 14.98342493 28257,6950.154,96.106,573.498,570.541,0.0
56815.0,STARLINK-6057,PAYLOAD,2023-11-28 22:48:13,14.98322487,0.0002615,70.0012,281.6705,253.3293,106.7579,0.00030175,3.509e-05,0.0,0 STARLINK-6057,1 56815U 23078BA  23332.95015822  .00003509  00000-0  30175-3 0  9996,2 56815  70.0012 281.6705 0002615 253.3293 106.7579 14.98322487 28099,6950.216,96.107,573.899,570.264,0.0
56815.0,STARLINK-6057,PAYLOAD,2023-11-29 03:36:37,14.98324671,0.0002741,70.0012,281.1652,260.5381,99.5468,0.00034949,4.079e-05,0.0,0 STARLINK-6057,1 56815U 23078BA  23333.15043645  .00004079  00000-0  34949-3 0  9999,2 56815  70.0012 281.1652 0002741 260.5381  99.5468 14.98324671 28388,6950.209,96.107,573.979,570.169,0.0
56815.0,STARLINK-6057,PAYLOAD,2023-11-29 06:48:53,14.98328674,0.0002366,70.0017,280.8292,255.0367,105.053,0.00034923,4.076e-05,0.0,0 STARLINK-6057,1 56815U 23078BA  23333.28395463  .00004076  00000-0  34923-3 0  9990,2 56815  70.0017 280.8292 0002366 255.0367 105.0530 14.98328674 28149,6950.197,96.107,573.706,570.418,0.0
56815.0,STARLINK-6057,PAYLOAD,2023-11-30 03:38:39,14.9833001,0.0002412,70.0019,278.6428,237.7476,122.345,-0.00011106,-1.418e-05,0.0,0 STARLINK-6057,1 56815U 23078BA  23334.15184418 -.00001418  00000-0 -11106-3 0  9990,2 56815  70.0019 278.6428 0002412 237.7476 122.3450 14.98330010 28530,6950.193,96.107,573.734,570.381,0.0
56815.0,STARLINK-6057,PAYLOAD,2023-12-01 03:40:39,14.98332169,0.0002543,70.0011,276.1167,243.4871,116.6028,-8.8851e-05,-1.153e-05,0.0,0 STARLINK-6057,1 56815U 23078BA  23335.15324031 -.00001153  00000-0 -88851-4 0  9996,2 56815  70.0011 276.1167 0002543 243.4871 116.6028 14.98332169 28683,6950.186,96.107,573.819,570.284,0.0
56815.0,STARLINK-6057,PAYLOAD,2023-12-01 22:54:15,14.98336885,0.0002392,70.0014,274.0966,245.2047,114.8863,0.0001366,1.538e-05,0.0,0 STARLINK-6057,1 56815U 23078BA  23335.95434809  .00001538  00000-0  13660-3 0  9999,2 56815  70.0014 274.0966 0002392 245.2047 114.8863 14.98336885 28548,6950.172,96.107,573.699,570.374,0.0
56815.0,STARLINK-6057,PAYLOAD,2023-12-02 00:30:23,14.9833836,0.0002349,70.0013,273.9284,245.9923,114.099,0.00015239,1.726e-05,0.0,0 STARLINK-6057,1 56815U 23078BA  23336.02110655  .00001726  00000-0  15239-3 0  9991,2 56815  70.0013 273.9284 0002349 245.9923 114.0990 14.98338360 28813,6950.167,96.106,573.665,570.399,0.0
56815.0,STARLINK-6057,PAYLOAD,2023-12-02 06:54:54,14.98351048,0.0002499,70.0028,273.2572,220.8375,139.2597,0.00031345,3.651e-05,0.0,0 STARLINK-6057,1 56815U 23078BA  23336.28813187  .00003651  00000-0  31345-3 0  9994,2 56815  70.0028 273.2572 0002499 220.8375 139.2597 14.98351048 28855,6950.128,96.106,573.73,570.256,0.0
56815.0,STARLINK-6057,PAYLOAD,2023-12-02 22:56:34,14.98118963,0.0002481,70.0007,271.573,259.698,100.3899,-0.0022645,-0.00026862,0.0,0 STARLINK-6057,1 56815U 23078BA  23336.95595990 -.00026862  00000-0 -22645-2 0  9990,2 56815  70.0007 271.5730 0002481 259.6980 100.3899 14.98118963 28695,6950.846,96.121,574.435,570.986,0.0
56815.0,STARLINK-6057,PAYLOAD,2023-12-03 03:45:09,14.98018903,0.0002335,70.0016,271.0689,302.9896,57.1038,-0.0032537,-0.00038392,0.0,0 STARLINK-6057,1 56815U 23078BA  23337.15636204 -.00038392  00000-0 -32537-2 0  9999,2 56815  70.0016 271.0689 0002335 302.9896  57.1038 14.98018903 28988,6951.155,96.127,574.643,571.397,0.0
56815.0,STARLINK-6057,PAYLOAD,2023-12-03 05:21:22,14.97967581,0.0001983,70.0024,270.9018,259.8373,100.2562,-0.0037497,-0.00044135,0.0,0 STARLINK-6057,1 56815U 23078BA  23337.22317553 -.00044135  00000-0 -37497-2 0  9992,2 56815  70.0024 270.9018 0001983 259.8373 100.2562 14.97967581 28996,6951.314,96.13,574.557,571.8,0.0
56815.0,STARLINK-6057,PAYLOAD,2023-12-03 19:47:06,14.97758987,0.0002115,70.0025,269.39,223.2068,136.8925,-0.0056227,-0.0006558,0.0,0 STARLINK-6057,1 56815U 23078BA  23337.82438036 -.00065580  00000-0 -56227-2 0  9997,2 56815  70.0025 269.3900 0002115 223.2068 136.8925 14.97758987 29080,6951.959,96.144,575.295,572.354,0.0
56815.0,STARLINK-6057,PAYLOAD,2023-12-04 06:00:00,14.96682087,0.000293,70.0014,268.3142,278.2917,215.7835,0.0040071,0.00046036,0.0,0 STARLINK-6057,1 56815U 23078BA  23338.25001157  .00046036  00000-0  40071-2 0  9998,2 56815  70.0014 268.3142 0002930 278.2917 215.7835 14.96682087 29154,6955.294,96.213,579.197,575.121,0.0
56815.0,STARLINK-6057,PAYLOAD,2023-12-04 16:00:01,14.96666443,0.0002928,70.0014,267.2663,270.4194,308.141,0.0079477,0.00091967,0.0,0 STARLINK-6057,1 56815U 23078BA  23338.66668981  .00091967  00000-0  79477-2 0  9992,2 56815  70.0014 267.2663 0002928 270.4194 308.1410 14.96666443  5808,6955.342,96.214,579.244,575.171,0.0
